[{"OBJECT_NAME":"TIANMU-1 10","OBJECT_ID":"2023-101D","EPOCH":"2026-03-09T23:06:46.939392","MEAN_MOTION":15.2921896,"ECCENTRICITY":0.00069292,"INCLINATION":97.2749,"RA_OF_ASC_NODE":122.1027,"ARG_OF_PERICENTER":133.6162,"MEAN_ANOMALY":226.5654,"EPHEMERIS_TYPE":0,"CLASSIFICATION_TYPE":"U","NORAD_CAT_ID":57402,"ELEMENT_SET_NO":999,"REV_AT_EPOCH":14647,"BSTAR":0.00032238884,"MEAN_MOTION_DOT":9.075e-5,"MEAN_MOTION_DDOT":0},{"OBJECT_NAME":"STARLINK-35598","OBJECT_ID":"2025-263AA","EPOCH":"2026-03-09T03:53:23.535744","MEAN_MOTION":15.27556739,"ECCENTRICITY":0.00020717,"INCLINATION":43.0038,"RA_OF_ASC_NODE":354.0684,"ARG_OF_PERICENTER":272.3623,"MEAN_ANOMALY":87.6991,"EPHEMERIS_TYPE":0,"CLASSIFICATION_TYPE":"U","NORAD_CAT_ID":66509,"ELEMENT_SET_NO":999,"REV_AT_EPOCH":1881,"BSTAR":0.00090979892,"MEAN_MOTION_DOT":0.00024841,"MEAN_MOTION_DDOT":0}]
